NORAD_CAT_ID,OBJECT_NAME,OBJECT_TYPE,EPOCH,MEAN_MOTION,ECCENTRICITY,INCLINATION,RA_OF_ASC_NODE,ARG_OF_PERICENTER,MEAN_ANOMALY,BSTAR,MEAN_MOTION_DOT,MEAN_MOTION_DDOT,TLE_LINE0,TLE_LINE1,TLE_LINE2,SEMIMAJOR_AXIS,PERIOD,APOGEE,PERIGEE,DECAYED
53578.0,STARLINK-4556,PAYLOAD,2024-05-19 05:24:23,15.08835485,0.0001363,53.2165,134.2079,93.3632,266.7516,1.6948e-05,-1.8e-07,0.0,0 STARLINK-4556,1 53578U 22101BD  24140.22526955 -.00000018  00000-0  16948-4 0  9993,2 53578  53.2165 134.2079 0001363  93.3632 266.7516 15.08835485 96899,6917.894,95.438,540.702,538.816,0.0
53578.0,STARLINK-4556,PAYLOAD,2024-05-19 10:10:31,15.08854558,0.0001551,53.2165,133.3152,104.7634,255.353,-0.0004559,-7.539e-05,0.0,0 STARLINK-4556,1 53578U 22101BD  24140.42397823 -.00007539  00000-0 -45590-3 0  9995,2 53578  53.2165 133.3152 0001551 104.7634 255.3530 15.08854558 96925,6917.836,95.437,540.774,538.628,0.0
53578.0,STARLINK-4556,PAYLOAD,2024-05-20 03:39:47,15.08838635,0.0001435,53.2166,130.0442,96.5314,263.5841,0.00013116,1.8e-05,0.0,0 STARLINK-4556,1 53578U 22101BD  24141.15263054  .00001800  00000-0  13116-3 0  9996,2 53578  53.2166 130.0442 0001435  96.5314 263.5841 15.08838635 97033,6917.885,95.438,540.742,538.757,0.0
53578.0,STARLINK-4556,PAYLOAD,2024-05-20 06:50:33,15.088424,0.0001386,53.2161,129.4485,92.5583,267.5567,0.00015769,2.223e-05,0.0,0 STARLINK-4556,1 53578U 22101BD  24141.28510881  .00002223  00000-0  15769-3 0  9999,2 53578  53.2161 129.4485 0001386  92.5583 267.5567 15.08842400 97052,6917.873,95.437,540.697,538.779,0.0
53578.0,STARLINK-4556,PAYLOAD,2024-05-21 05:05:58,15.08834726,0.0001592,53.2178,125.2849,76.1097,284.0072,5.8364e-05,6.41e-06,0.0,0 STARLINK-4556,1 53578U 22101BD  24142.21247941  .00000641  00000-0  58364-4 0  9998,2 53578  53.2178 125.2849 0001592  76.1097 284.0072 15.08834726 97197,6917.897,95.438,540.863,538.66,0.0
53578.0,STARLINK-4556,PAYLOAD,2024-05-21 08:16:44,15.08836837,0.0001624,53.218,124.6896,73.5593,286.5577,6.9045e-05,8.11e-06,0.0,0 STARLINK-4556,1 53578U 22101BD  24142.34495791  .00000811  00000-0  69045-4 0  9997,2 53578  53.2180 124.6896 0001624  73.5593 286.5577 15.08836837 97218,6917.89,95.438,540.879,538.632,0.0
53578.0,STARLINK-4556,PAYLOAD,2024-05-22 04:56:44,15.08849426,0.0001444,53.2181,120.8252,83.1227,276.9929,0.00011146,1.487e-05,0.0,0 STARLINK-4556,1 53578U 22101BD  24143.20606715  .00001487  00000-0  11146-3 0  9991,2 53578  53.2181 120.8252 0001444  83.1227 276.9929 15.08849426 97340,6917.852,95.437,540.716,538.718,0.0
53578.0,STARLINK-4556,PAYLOAD,2024-05-23 04:47:31,15.08839666,0.0001284,53.2177,116.3661,83.9696,276.1443,3.8983e-05,3.33e-06,0.0,0 STARLINK-4556,1 53578U 22101BD  24144.19967400  .00000333  00000-0  38983-4 0  9999,2 53578  53.2177 116.3661 0001284  83.9696 276.1443 15.08839666 97493,6917.881,95.438,540.635,538.858,0.0
53578.0,STARLINK-4556,PAYLOAD,2024-05-24 07:49:04,15.08843452,0.0001349,53.2179,111.309,96.9719,263.1427,3.2808e-05,2.34e-06,0.0,0 STARLINK-4556,1 53578U 22101BD  24145.32575014  .00000234  00000-0  32808-4 0  9991,2 53578  53.2179 111.3090 0001349  96.9719 263.1427 15.08843452 97663,6917.87,95.437,540.668,538.802,0.0
53578.0,STARLINK-4556,PAYLOAD,2024-05-24 20:32:10,15.08830058,0.0001386,53.2178,108.929,98.1516,261.9634,2.8183e-05,1.61e-06,0.0,0 STARLINK-4556,1 53578U 22101BD  24145.85567968  .00000161  00000-0  28183-4 0  9998,2 53578  53.2178 108.9290 0001386  98.1516 261.9634 15.08830058 97749,6917.911,95.438,540.735,538.817,0.0
53578.0,STARLINK-4556,PAYLOAD,2024-05-24 22:07:33,15.08835414,0.0001377,53.2178,108.6317,95.9154,264.1995,-4.3973e-05,-9.88e-06,0.0,0 STARLINK-4556,1 53578U 22101BD  24145.92191944 -.00000988  00000-0 -43973-4 0  9996,2 53578  53.2178 108.6317 0001377  95.9154 264.1995 15.08835414 97756,6917.894,95.438,540.712,538.807,0.0
53578.0,STARLINK-4556,PAYLOAD,2024-05-25 04:29:07,15.0877946,0.0001615,53.2178,107.4425,92.274,267.8438,0.00072175,0.00011198,0.0,0 STARLINK-4556,1 53578U 22101BD  24146.18689307  .00011198  00000-0  72175-3 0  9998,2 53578  53.2178 107.4425 0001615  92.2740 267.8438 15.08779460 97793,6918.065,95.441,541.048,538.813,0.0
53578.0,STARLINK-4556,PAYLOAD,2024-05-25 14:01:25,15.08825528,0.0001191,53.218,105.6611,96.8408,263.272,-2.966e-05,-7.6e-06,0.0,0 STARLINK-4556,1 53578U 22101BD  24146.58432705 -.00000760  00000-0 -29660-4 0  9997,2 53578  53.2180 105.6611 0001191  96.8408 263.2720 15.08825528 97851,6917.925,95.438,540.614,538.966,0.0
53578.0,STARLINK-4556,PAYLOAD,2024-05-26 07:30:39,15.08839279,0.0001278,53.2175,102.3889,93.0005,267.1133,3.8555e-05,3.26e-06,0.0,0 STARLINK-4556,1 53578U 22101BD  24147.31295963  .00000326  00000-0  38555-4 0  9991,2 53578  53.2175 102.3889 0001278  93.0005 267.1133 15.08839279 97965,6917.883,95.438,540.632,538.863,0.0
53578.0,STARLINK-4556,PAYLOAD,2024-05-26 21:49:08,15.08834907,0.0001302,53.2176,99.7123,82.2126,277.9014,8.4772e-05,1.061e-05,0.0,0 STARLINK-4556,1 53578U 22101BD  24147.90912300  .00001061  00000-0  84772-4 0  9996,2 53578  53.2176  99.7123 0001302  82.2126 277.9014 15.08834907 98059,6917.896,95.438,540.662,538.86,0.0
53578.0,STARLINK-4556,PAYLOAD,2024-05-27 13:42:59,15.08836152,0.0001249,53.2178,96.7382,95.1939,264.9196,6.4384e-05,7.37e-06,0.0,0 STARLINK-4556,1 53578U 22101BD  24148.57152346  .00000737  00000-0  64384-4 0  9992,2 53578  53.2178  96.7382 0001249  95.1939 264.9196 15.08836152 98152,6917.892,95.438,540.621,538.893,0.0
53578.0,STARLINK-4556,PAYLOAD,2024-05-28 05:36:50,15.08844228,0.0001447,53.2189,93.7621,87.5373,272.5785,5.825e-05,6.39e-06,0.0,0 STARLINK-4556,1 53578U 22101BD  24149.23391951  .00000639  00000-0  58250-4 0  9999,2 53578  53.2189  93.7621 0001447  87.5373 272.5785 15.08844228 98257,6917.867,95.437,540.733,538.731,0.0
53578.0,STARLINK-4556,PAYLOAD,2024-05-28 13:33:46,15.08845542,0.0001445,53.2192,92.2748,85.1659,274.9498,4.2725e-05,3.92e-06,0.0,0 STARLINK-4556,1 53578U 22101BD  24149.56511832  .00000392  00000-0  42725-4 0  9993,2 53578  53.2192  92.2748 0001445  85.1659 274.9498 15.08845542 98307,6917.863,95.437,540.728,538.729,0.0
53578.0,STARLINK-4556,PAYLOAD,2024-05-29 02:16:51,15.08842164,0.0001486,53.2187,89.8955,81.8276,278.2885,1.4235e-06,-2.65e-06,0.0,0 STARLINK-4556,1 53578U 22101BD  24150.09504175 -.00000265  00000-0  14235-5 0  9991,2 53578  53.2187  89.8955 0001486  81.8276 278.2885 15.08842164 98388,6917.874,95.437,540.767,538.711,0.0
53578.0,STARLINK-4556,PAYLOAD,2024-05-29 22:56:52,15.08829101,0.0001393,53.2171,86.0327,114.2435,245.8703,0.00015007,2.101e-05,0.0,0 STARLINK-4556,1 53578U 22101BD  24150.95616208  .00002101  00000-0  15007-3 0  9993,2 53578  53.2171  86.0327 0001393 114.2435 245.8703 15.08829101 98518,6917.914,95.438,540.742,538.815,0.0
53578.0,STARLINK-4556,PAYLOAD,2024-05-30 02:07:38,15.08843128,0.0001463,53.2184,85.4393,87.8947,272.2212,7.4033e-06,-1.7e-06,0.0,0 STARLINK-4556,1 53578U 22101BD  24151.08864117 -.00000170  00000-0  74033-5 0  9993,2 53578  53.2184  85.4393 0001463  87.8947 272.2212 15.08843128 98535,6917.871,95.437,540.748,538.724,0.0
53578.0,STARLINK-4556,PAYLOAD,2024-05-31 01:58:25,15.08844638,0.0001545,53.2192,80.9793,99.5968,260.5199,7.2772e-05,8.7e-06,0.0,0 STARLINK-4556,1 53578U 22101BD  24152.08223589  .00000870  00000-0  72772-4 0  9999,2 53578  53.2192  80.9793 0001545  99.5968 260.5199 15.08844638 98689,6917.866,95.437,540.8,538.662,0.0
53578.0,STARLINK-4556,PAYLOAD,2024-05-31 05:09:11,15.08846338,0.0001515,53.2188,80.3826,104.8143,255.3017,8.8601e-05,1.123e-05,0.0,0 STARLINK-4556,1 53578U 22101BD  24152.21471331  .00001123  00000-0  88601-4 0  9994,2 53578  53.2188  80.3826 0001515 104.8143 255.3017 15.08846338 98700,6917.861,95.437,540.774,538.678,0.0
53578.0,STARLINK-4556,PAYLOAD,2024-05-31 22:38:26,15.08830919,0.000139,53.2182,77.1113,96.2086,263.9064,9.6223e-05,1.243e-05,0.0,0 STARLINK-4556,1 53578U 22101BD  24152.94336297  .00001243  00000-0  96223-4 0  9997,2 53578  53.2182  77.1113 0001390  96.2086 263.9064 15.08830919 98815,6917.908,95.438,540.735,538.812,0.0
53578.0,STARLINK-4556,PAYLOAD,2024-06-01 04:59:58,15.08843845,0.0001207,53.2187,75.9234,91.012,269.101,2.9282e-05,1.78e-06,0.0,0 STARLINK-4556,1 53578U 22101BD  24153.20831654  .00000178  00000-0  29282-4 0  9991,2 53578  53.2187  75.9234 0001207  91.0120 269.1010 15.08843845 98854,6917.869,95.437,540.569,538.899,0.0
53578.0,STARLINK-4556,PAYLOAD,2024-06-01 19:18:27,15.08834934,0.0001216,53.2186,73.2467,89.5274,270.5857,-0.00010388,-1.94e-05,0.0,0 STARLINK-4556,1 53578U 22101BD  24153.80448883 -.00001940  00000-0 -10388-3 0  9991,2 53578  53.2186  73.2467 0001216  89.5274 270.5857 15.08834934 98948,6917.896,95.438,540.602,538.92,0.0
53578.0,STARLINK-4556,PAYLOAD,2024-06-02 11:12:19,15.08836356,0.0001105,53.2176,70.2741,81.0956,279.0161,-5.3175e-05,-1.134e-05,0.0,0 STARLINK-4556,1 53578U 22101BD  24154.46688704 -.00001134  00000-0 -53175-4 0  9999,2 53578  53.2176  70.2741 0001105  81.0956 279.0161 15.08836356 99044,6917.892,95.438,540.521,538.992,0.0
53578.0,STARLINK-4556,PAYLOAD,2024-06-02 17:33:51,15.08829955,9.78e-05,53.2176,69.0859,86.7154,273.395,3.1408e-05,2.12e-06,0.0,0 STARLINK-4556,1 53578U 22101BD  24154.73184990  .00000212  00000-0  31408-4 0  9996,2 53578  53.2176  69.0859 0000978  86.7154 273.3950 15.08829955 99083,6917.911,95.438,540.453,539.1,0.0
53578.0,STARLINK-4556,PAYLOAD,2024-06-03 03:06:10,15.0884001,0.0001028,53.2178,67.302,84.8094,275.3016,3.2452e-05,2.29e-06,0.0,0 STARLINK-4556,1 53578U 22101BD  24155.12928515  .00000229  00000-0  32452-4 0  9997,2 53578  53.2178  67.3020 0001028  84.8094 275.3016 15.08840010 99142,6917.88,95.438,540.457,539.034,0.0
53578.0,STARLINK-4556,PAYLOAD,2024-06-03 11:03:06,15.08836636,9.85e-05,53.2176,65.8154,88.3187,271.7918,3.4218e-05,2.57e-06,0.0,0 STARLINK-4556,1 53578U 22101BD  24155.46048844  .00000257  00000-0  34218-4 0  9995,2 53578  53.2176  65.8154 0000985  88.3187 271.7918 15.08836636 99199,6917.891,95.438,540.437,539.074,0.0
